{"type": "FeatureCollection", "features": [ {"type": "Feature", "properties": {"norad_id": 67064, "name": "HULIANWANG DIGUI 16F", "group": "last-30-days", "lat": -49.95643195382566, "lon": -83.87448370213924, "alt_km": 796.0357705180058, "timestamp": "2025-12-14T18:52:54.245372+00:00", "meta": {"OBJECT_NAME": "HULIANWANG DIGUI 16F", "OBJECT_ID": "2025-295F", "EPOCH": "2025-12-12T05:06:22.414752", "MEAN_MOTION": 14.26957674, "ECCENTRICITY": 0.00149026, "INCLINATION": 50.0027, "RA_OF_ASC_NODE": 14.4596, "ARG_OF_PERICENTER": 247.8107, "MEAN_ANOMALY": 112.1227, "EPHEMERIS_TYPE": 0, "CLASSIFICATION_TYPE": "U", "NORAD_CAT_ID": 67064, "ELEMENT_SET_NO": 999, "REV_AT_EPOCH": 4, "BSTAR": 2.6251967e-05, "MEAN_MOTION_DOT": -9.6e-07, "MEAN_MOTION_DDOT": 0}, "tle": {"line1": "1 67064U 25295F   25346.21275943 -.00000096  00000+0  26252-4 0  9995", "line2": "2 67064  50.0027  14.4596 0014902 247.8107 112.1227 14.26957674    44"}}, "geometry": {"type": "Point", "coordinates": [-83.87448370213924, -49.95643195382566]}}, {"type": "Feature", "properties": {"norad_id": 67066, "name": "HULIANWANG DIGUI 16H", "group": "last-30-days", "lat": -49.8854493577712, "lon": -91.23055437940614, "alt_km": 800.0049575811963, "timestamp": "2025-12-14T18:52:54.245382+00:00", "meta": {"OBJECT_NAME": "HULIANWANG DIGUI 16H", "OBJECT_ID": "2025-295H", "EPOCH": "2025-12-12T05:06:20.088000", "MEAN_MOTION": 14.26429655, "ECCENTRICITY": 0.00114905, "INCLINATION": 50.0029, "RA_OF_ASC_NODE": 14.4606, "ARG_OF_PERICENTER": 248.6611, "MEAN_ANOMALY": 111.3077, "EPHEMERIS_TYPE": 0, "CLASSIFICATION_TYPE": "U", "NORAD_CAT_ID": 67066, "ELEMENT_SET_NO": 999, "REV_AT_EPOCH": 4, "BSTAR": 2.4353642e-05, "MEAN_MOTION_DOT": -1.01e-06, "MEAN_MOTION_DDOT": 0}, "tle": {"line1": "1 67066U 25295H   25346.21273250 -.00000101  00000+0  24354-4 0  9994", "line2": "2 67066  50.0029  14.4606 0011490 248.6611 111.3077 14.26429655    45"}}, "geometry": {"type": "Point", "coordinates": [-91.23055437940614, -49.8854493577712]}}, {"type": "Feature", "properties": {"norad_id": 67067, "name": "HULIANWANG DIGUI 16J", "group": "last-30-days", "lat": -49.848862875561316, "lon": -92.06498259216546, "alt_km": 800.8655658379239, "timestamp": "2025-12-14T18:52:54.245392+00:00", "meta": {"OBJECT_NAME": "HULIANWANG DIGUI 16J", "OBJECT_ID": "2025-295J", "EPOCH": "2025-12-12T05:06:18.555264", "MEAN_MOTION": 14.26361638, "ECCENTRICITY": 0.00104901, "INCLINATION": 50.0044, "RA_OF_ASC_NODE": 14.4694, "ARG_OF_PERICENTER": 253.0387, "MEAN_ANOMALY": 106.9378, "EPHEMERIS_TYPE": 0, "CLASSIFICATION_TYPE": "U", "NORAD_CAT_ID": 67067, "ELEMENT_SET_NO": 999, "REV_AT_EPOCH": 4, "BSTAR": 6.475965e-06, "MEAN_MOTION_DOT": -1.45e-06, "MEAN_MOTION_DDOT": 0}, "tle": {"line1": "1 67067U 25295J   25346.21271476 -.00000145  00000+0  64760-5 0  9997", "line2": "2 67067  50.0044  14.4694 0010490 253.0387 106.9378 14.26361638    49"}}, "geometry": {"type": "Point", "coordinates": [-92.06498259216546, -49.848862875561316]}}, {"type": "Feature", "properties": {"norad_id": 67070, "name": "2025-296B", "group": "last-30-days", "lat": 40.405640833285105, "lon": -161.40307914350822, "alt_km": 796.4745791585756, "timestamp": "2025-12-14T18:52:54.245403+00:00", "meta": {"OBJECT_NAME": "2025-296B", "OBJECT_ID": "2025-296B", "EPOCH": "2025-12-13T01:08:41.999712", "MEAN_MOTION": 14.29360286, "ECCENTRICITY": 0.001167, "INCLINATION": 49.96, "RA_OF_ASC_NODE": 71.6976, "ARG_OF_PERICENTER": 307.015, "MEAN_ANOMALY": 220.3788, "EPHEMERIS_TYPE": 0, "CLASSIFICATION_TYPE": "U", "NORAD_CAT_ID": 67070, "ELEMENT_SET_NO": 999, "REV_AT_EPOCH": 0, "BSTAR": 0, "MEAN_MOTION_DOT": -1.62e-06, "MEAN_MOTION_DDOT": 0}, "tle": {"line1": "1 67070U 25296B   25347.04770833 -.00000162  00000+0  00000+0 0  9995", "line2": "2 67070  49.9600  71.6976 0011670 307.0150 220.3788 14.29360286    08"}}, "geometry": {"type": "Point", "coordinates": [-161.40307914350822, 40.405640833285105]}}, {"type": "Feature", "properties": {"norad_id": 67071, "name": "KZ-11 R/B", "group": "last-30-days", "lat": 19.382860187419556, "lon": -112.78527900296186, "alt_km": 1346.5901512442833, "timestamp": "2025-12-14T18:52:54.245416+00:00", "meta": {"OBJECT_NAME": "KZ-11 R/B", "OBJECT_ID": "2025-296C", "EPOCH": "2025-12-13T03:57:12.269376", "MEAN_MOTION": 14.41614344, "ECCENTRICITY": 0.08603054, "INCLINATION": 41.3405, "RA_OF_ASC_NODE": 99.1629, "ARG_OF_PERICENTER": 320.0027, "MEAN_ANOMALY": 34.035, "EPHEMERIS_TYPE": 0, "CLASSIFICATION_TYPE": "U", "NORAD_CAT_ID": 67071, "ELEMENT_SET_NO": 999, "REV_AT_EPOCH": 2, "BSTAR": 0.00012972566, "MEAN_MOTION_DOT": 0.00801494, "MEAN_MOTION_DDOT": 4.646094e-06}, "tle": {"line1": "1 67071U 25296C   25347.16472534  .00801494  46461-5  12973-3 0  9995", "line2": "2 67071  41.3405  99.1629 0860305 320.0027  34.0350 14.41614344    21"}}, "geometry": {"type": "Point", "coordinates": [-112.78527900296186, 19.382860187419556]}}]}